CCSDS_OMM_VERS = 2.0
CREATION_DATE  = 
ORIGINATOR     = 

OBJECT_NAME    = STARLINK-35462
OBJECT_ID      = 2025-223Z
CENTER_NAME    = EARTH
REF_FRAME      = TEME
TIME_SYSTEM    = UTC
MEAN_ELEMENT_THEORY = SGP/SGP4

EPOCH          = 2025-10-26T22:45:25.192800
MEAN_MOTION    = 15.49344364
ECCENTRICITY   = .00010873
INCLINATION    = 53.1586
RA_OF_ASC_NODE = 197.9070
ARG_OF_PERICENTER = 107.7667
MEAN_ANOMALY   = 252.3461

EPHEMERIS_TYPE = 0
CLASSIFICATION_TYPE = U
NORAD_CAT_ID   = 65877
ELEMENT_SET_NO = 999
REV_AT_EPOCH   = 369
BSTAR          = .17655603E-2
MEAN_MOTION_DOT = .99123E-3
MEAN_MOTION_DDOT = 0

CCSDS_OMM_VERS = 2.0
CREATION_DATE  = 
ORIGINATOR     = 

OBJECT_NAME    = STARLINK-35453
OBJECT_ID      = 2025-223AA
CENTER_NAME    = EARTH
REF_FRAME      = TEME
TIME_SYSTEM    = UTC
MEAN_ELEMENT_THEORY = SGP/SGP4

EPOCH          = 2025-10-26T22:46:24.520224
MEAN_MOTION    = 15.49324944
ECCENTRICITY   = .00011077
INCLINATION    = 53.1593
RA_OF_ASC_NODE = 197.9117
ARG_OF_PERICENTER = 93.6923
MEAN_ANOMALY   = 266.4213

EPHEMERIS_TYPE = 0
CLASSIFICATION_TYPE = U
NORAD_CAT_ID   = 65878
ELEMENT_SET_NO = 999
REV_AT_EPOCH   = 369
BSTAR          = .95711281E-3
MEAN_MOTION_DOT = .53175E-3
MEAN_MOTION_DDOT = 0

CCSDS_OMM_VERS = 2.0
CREATION_DATE  = 
ORIGINATOR     = 

OBJECT_NAME    = STARLINK-35418
OBJECT_ID      = 2025-223AB
CENTER_NAME    = EARTH
REF_FRAME      = TEME
TIME_SYSTEM    = UTC
MEAN_ELEMENT_THEORY = SGP/SGP4

EPOCH          = 2025-10-26T22:44:55.541184
MEAN_MOTION    = 15.49338198
ECCENTRICITY   = .00010726
INCLINATION    = 53.1593
RA_OF_ASC_NODE = 197.9049
ARG_OF_PERICENTER = 83.4815
MEAN_ANOMALY   = 276.6317

EPHEMERIS_TYPE = 0
CLASSIFICATION_TYPE = U
NORAD_CAT_ID   = 65879
ELEMENT_SET_NO = 999
REV_AT_EPOCH   = 369
BSTAR          = .17889042E-2
MEAN_MOTION_DOT = .100434E-2
MEAN_MOTION_DDOT = 0

CCSDS_OMM_VERS = 2.0
CREATION_DATE  = 
ORIGINATOR     = 

OBJECT_NAME    = STARLINK-35445
OBJECT_ID      = 2025-223AC
CENTER_NAME    = EARTH
REF_FRAME      = TEME
TIME_SYSTEM    = UTC
MEAN_ELEMENT_THEORY = SGP/SGP4

EPOCH          = 2025-10-26T22:45:54.914400
MEAN_MOTION    = 15.49336275
ECCENTRICITY   = .00010169
INCLINATION    = 53.1587
RA_OF_ASC_NODE = 197.9093
ARG_OF_PERICENTER = 97.8413
MEAN_ANOMALY   = 262.2712

EPHEMERIS_TYPE = 0
CLASSIFICATION_TYPE = U
NORAD_CAT_ID   = 65880
ELEMENT_SET_NO = 999
REV_AT_EPOCH   = 369
BSTAR          = .16029722E-2
MEAN_MOTION_DOT = .8982E-3
MEAN_MOTION_DDOT = 0

CCSDS_OMM_VERS = 2.0
CREATION_DATE  = 
ORIGINATOR     = 

OBJECT_NAME    = STARLINK-35464
OBJECT_ID      = 2025-223AD
CENTER_NAME    = EARTH
REF_FRAME      = TEME
TIME_SYSTEM    = UTC
MEAN_ELEMENT_THEORY = SGP/SGP4

EPOCH          = 2025-10-26T22:44:25.829088
MEAN_MOTION    = 15.49330906
ECCENTRICITY   = .00009557
INCLINATION    = 53.1592
RA_OF_ASC_NODE = 197.9030
ARG_OF_PERICENTER = 87.4363
MEAN_ANOMALY   = 272.6756

EPHEMERIS_TYPE = 0
CLASSIFICATION_TYPE = U
NORAD_CAT_ID   = 65881
ELEMENT_SET_NO = 999
REV_AT_EPOCH   = 369
BSTAR          = .14035561E-2
MEAN_MOTION_DOT = .7846E-3
MEAN_MOTION_DDOT = 0

CCSDS_OMM_VERS = 2.0
CREATION_DATE  = 
ORIGINATOR     = 

OBJECT_NAME    = STARLINK-35270
OBJECT_ID      = 2025-224A
CENTER_NAME    = EARTH
REF_FRAME      = TEME
TIME_SYSTEM    = UTC
MEAN_ELEMENT_THEORY = SGP/SGP4

EPOCH          = 2025-10-26T22:00:03.000096
MEAN_MOTION    = 15.63284067
ECCENTRICITY   = .00010648
INCLINATION    = 53.1596
RA_OF_ASC_NODE = 275.5210
ARG_OF_PERICENTER = 105.6556
MEAN_ANOMALY   = 253.4980

EPHEMERIS_TYPE = 0
CLASSIFICATION_TYPE = U
NORAD_CAT_ID   = 65882
ELEMENT_SET_NO = 999
REV_AT_EPOCH   = 433
BSTAR          = -.24298749E-1
MEAN_MOTION_DOT = -.1997566E-1
MEAN_MOTION_DDOT = 0

CCSDS_OMM_VERS = 2.0
CREATION_DATE  = 
ORIGINATOR     = 

OBJECT_NAME    = STARLINK-35367
OBJECT_ID      = 2025-224B
CENTER_NAME    = EARTH
REF_FRAME      = TEME
TIME_SYSTEM    = UTC
MEAN_ELEMENT_THEORY = SGP/SGP4

EPOCH          = 2025-10-26T22:00:03.000096
MEAN_MOTION    = 15.63284174
ECCENTRICITY   = .00010678
INCLINATION    = 53.1599
RA_OF_ASC_NODE = 275.5138
ARG_OF_PERICENTER = 96.8607
MEAN_ANOMALY   = 266.1266

EPHEMERIS_TYPE = 0
CLASSIFICATION_TYPE = U
NORAD_CAT_ID   = 65883
ELEMENT_SET_NO = 999
REV_AT_EPOCH   = 433
BSTAR          = -.24304651E-1
MEAN_MOTION_DOT = -.1998001E-1
MEAN_MOTION_DDOT = 0

CCSDS_OMM_VERS = 2.0
CREATION_DATE  = 
ORIGINATOR     = 

OBJECT_NAME    = STARLINK-35384
OBJECT_ID      = 2025-224C
CENTER_NAME    = EARTH
REF_FRAME      = TEME
TIME_SYSTEM    = UTC
MEAN_ELEMENT_THEORY = SGP/SGP4

EPOCH          = 2025-10-26T22:00:03.000096
MEAN_MOTION    = 15.63283499
ECCENTRICITY   = .00010373
INCLINATION    = 53.1598
RA_OF_ASC_NODE = 275.5043
ARG_OF_PERICENTER = 106.1656
MEAN_ANOMALY   = 260.6558

EPHEMERIS_TYPE = 0
CLASSIFICATION_TYPE = U
NORAD_CAT_ID   = 65884
ELEMENT_SET_NO = 999
REV_AT_EPOCH   = 433
BSTAR          = -.24292033E-1
MEAN_MOTION_DOT = -.1997021E-1
MEAN_MOTION_DDOT = 0

CCSDS_OMM_VERS = 2.0
CREATION_DATE  = 
ORIGINATOR     = 

OBJECT_NAME    = STARLINK-35415
OBJECT_ID      = 2025-224D
CENTER_NAME    = EARTH
REF_FRAME      = TEME
TIME_SYSTEM    = UTC
MEAN_ELEMENT_THEORY = SGP/SGP4

EPOCH          = 2025-10-26T22:00:03.000096
MEAN_MOTION    = 15.63287675
ECCENTRICITY   = .00010413
INCLINATION    = 53.1594
RA_OF_ASC_NODE = 275.4971
ARG_OF_PERICENTER = 100.9999
MEAN_ANOMALY   = 269.6516

EPHEMERIS_TYPE = 0
CLASSIFICATION_TYPE = U
NORAD_CAT_ID   = 65885
ELEMENT_SET_NO = 999
REV_AT_EPOCH   = 428
BSTAR          = -.24340698E-1
MEAN_MOTION_DOT = -.2000826E-1
MEAN_MOTION_DDOT = 0

CCSDS_OMM_VERS = 2.0
CREATION_DATE  = 
ORIGINATOR     = 

OBJECT_NAME    = STARLINK-35413
OBJECT_ID      = 2025-224E
CENTER_NAME    = EARTH
REF_FRAME      = TEME
TIME_SYSTEM    = UTC
MEAN_ELEMENT_THEORY = SGP/SGP4

EPOCH          = 2025-10-26T22:00:03.000096
MEAN_MOTION    = 15.63279384
ECCENTRICITY   = .0001085
INCLINATION    = 53.1597
RA_OF_ASC_NODE = 275.4885
ARG_OF_PERICENTER = 95.0087
MEAN_ANOMALY   = 279.4824

EPHEMERIS_TYPE = 0
CLASSIFICATION_TYPE = U
NORAD_CAT_ID   = 65886
ELEMENT_SET_NO = 999
REV_AT_EPOCH   = 428
BSTAR          = -.24222615E-1
MEAN_MOTION_DOT = -.1991761E-1
MEAN_MOTION_DDOT = 0

CCSDS_OMM_VERS = 2.0
CREATION_DATE  = 
ORIGINATOR     = 

OBJECT_NAME    = STARLINK-35332
OBJECT_ID      = 2025-224F
CENTER_NAME    = EARTH
REF_FRAME      = TEME
TIME_SYSTEM    = UTC
MEAN_ELEMENT_THEORY = SGP/SGP4

EPOCH          = 2025-10-26T22:00:03.000096
MEAN_MOTION    = 15.63282609
ECCENTRICITY   = .00010648
INCLINATION    = 53.1600
RA_OF_ASC_NODE = 275.4843
ARG_OF_PERICENTER = 95.9602
MEAN_ANOMALY   = 280.4455

EPHEMERIS_TYPE = 0
CLASSIFICATION_TYPE = U
NORAD_CAT_ID   = 65887
ELEMENT_SET_NO = 999
REV_AT_EPOCH   = 436
BSTAR          = -.24261453E-1
MEAN_MOTION_DOT = -.1994773E-1
MEAN_MOTION_DDOT = 0

CCSDS_OMM_VERS = 2.0
CREATION_DATE  = 
ORIGINATOR     = 

OBJECT_NAME    = STARLINK-35362
OBJECT_ID      = 2025-224G
CENTER_NAME    = EARTH
REF_FRAME      = TEME
TIME_SYSTEM    = UTC
MEAN_ELEMENT_THEORY = SGP/SGP4

EPOCH          = 2025-10-26T22:00:03.000096
MEAN_MOTION    = 15.63285886
ECCENTRICITY   = .00010801
INCLINATION    = 53.1599
RA_OF_ASC_NODE = 275.5164
ARG_OF_PERICENTER = 103.6479
MEAN_ANOMALY   = 257.4215

EPHEMERIS_TYPE = 0
CLASSIFICATION_TYPE = U
NORAD_CAT_ID   = 65888
ELEMENT_SET_NO = 999
REV_AT_EPOCH   = 433
BSTAR          = -.24329013E-1
MEAN_MOTION_DOT = -.1999886E-1
MEAN_MOTION_DDOT = 0

