STARLINK-35462          
1 65877U 25223Z   25299.94820825  .00099123  00000+0  17656-2 0  9992
2 65877  53.1586 197.9070 0001087 107.7667 252.3461 15.49344364  3690
STARLINK-35453          
1 65878U 25223AA  25299.94889491  .00053175  00000+0  95711-3 0  9993
2 65878  53.1593 197.9117 0001107  93.6923 266.4213 15.49324944  3695
STARLINK-35418          
1 65879U 25223AB  25299.94786506  .00100434  00000+0  17889-2 0  9997
2 65879  53.1593 197.9049 0001072  83.4815 276.6317 15.49338198  3692
STARLINK-35445          
1 65880U 25223AC  25299.94855225  .00089820  00000+0  16030-2 0  9996
2 65880  53.1587 197.9093 0001016  97.8413 262.2712 15.49336275  3691
STARLINK-35464          
1 65881U 25223AD  25299.94752117  .00078460  00000+0  14036-2 0  9995
2 65881  53.1592 197.9030 0000955  87.4363 272.6756 15.49330906  3697
STARLINK-35270          
1 65882U 25224A   25299.91670139 -.01997566  00000+0 -24299-1 0  9998
2 65882  53.1596 275.5210 0001064 105.6556 253.4980 15.63284067  4334
STARLINK-35367          
1 65883U 25224B   25299.91670139 -.01998001  00000+0 -24305-1 0  9992
2 65883  53.1599 275.5138 0001067  96.8607 266.1266 15.63284174  4335
STARLINK-35384          
1 65884U 25224C   25299.91670139 -.01997021  00000+0 -24292-1 0  9999
2 65884  53.1598 275.5043 0001037 106.1656 260.6558 15.63283499  4338
STARLINK-35415          
1 65885U 25224D   25299.91670139 -.02000826  00000+0 -24341-1 0  9994
2 65885  53.1594 275.4971 0001041 100.9999 269.6516 15.63287675  4288
STARLINK-35413          
1 65886U 25224E   25299.91670139 -.01991761  00000+0 -24223-1 0  9990
2 65886  53.1597 275.4885 0001085  95.0087 279.4824 15.63279384  4285
STARLINK-35332          
1 65887U 25224F   25299.91670139 -.01994773  00000+0 -24261-1 0  9999
2 65887  53.1600 275.4843 0001064  95.9602 280.4455 15.63282609  4369
STARLINK-35362          
1 65888U 25224G   25299.91670139 -.01999886  00000+0 -24329-1 0  9995
2 65888  53.1599 275.5164 0001080 103.6479 257.4215 15.63285886  4336
